last_updated,site_id,brand,address,postcode,lat,lon,B7,E10
14/04/2025 00:00:00,gbujt4qe0k18,SHELL,CARWIN RISE,TR27 5DG,50.198443,-5.396334,149.9,141.9
14/04/2025 00:00:00,gbumu87qeccz,SHELL,PLAYING PLACE,TR3 6HA,50.231992,-5.071057,143.9,138.9
14/04/2025 00:00:00,gbumvnm9yuyg,SHELL,TREGOLLS ROAD,TR1 1PU,50.264151,-5.045859,143.9,138.9
14/04/2025 00:00:00,gbuqmtk5sfy5,SHELL,A30,TR8 5AY,50.346838,-5.026033,147.9,141.9
14/04/2025 00:00:00,gbuqv45v3fzr,SHELL,HENVER ROAD,TR7 3EH,50.417177,-5.048476,143.9,136.9
14/04/2025 00:00:00,gbuqxe1kw2vj,SHELL,KINGSLEY VILLAGE,TR9 6NA,50.378585,-4.941856,147.9,141.9
14/04/2025 00:00:00,gbuwf7snkt92,SHELL,A30 VICTORIA JUNCTION,PL26 8UF,50.425602,-4.81731,148.9,141.9
14/04/2025 00:00:00,gbuyubqhznxw,SHELL,Trerulefoot,PL12 5BL,50.407498,-4.353022,149.9,141.9
14/04/2025 00:00:00,gbvqb9c8h0n5,SHELL,A38 South Brent,TQ10 9ER,50.414887,-3.842975,143.9,139.9
14/04/2025 00:00:00,gchc0smjtbrz,SHELL,BENCOOLEN ROAD,EX23 8PL,50.825074,-4.541216,148.9,141.9
14/04/2025 00:00:00,gcj07x5d4bv1,SHELL,SOURTON CROSS,EX20 4LY,50.707745,-4.06001,148.9,138.9
14/04/2025 00:00:00,gcj2pqrejg9v,SHELL,A38,EX6 7UD,50.659867,-3.538035,149.9,141.9
14/04/2025 00:00:00,gcj82tb1ujd8,SHELL,399 Topsham Road,EX2 6HD,50.700861,-3.493477,147.9,139.9
14/04/2025 00:00:00,gcj96gpkvxw9,SHELL,M5 JCT28,EX15 1NS,50.862062,-3.384574,145.9,139.9
14/04/2025 00:00:00,gcj989f4zs17,SHELL,EXETER ROAD,EX16 5DY,50.898779,-3.490582,145.9,139.9
14/04/2025 00:00:00,gcjcbrg5mprv,SHELL,"M5 SOUTHBOUND,",TA3 7PF,50.975787,-3.148731,171.9,162.9
14/04/2025 00:00:00,gcjcv0hnwsrr,SHELL,Horton Cross,TA19 9PT,50.933757,-2.938554,145.9,139.9
14/04/2025 00:00:00,gcjf02jz5ndb,SHELL,M5 Northbound,TA3 7PF,50.977799,-3.145047,171.9,162.9
14/04/2025 00:00:00,gcjg5fqduc4r,SHELL,OLD WORKS ROAD,TA6 4BQ,51.165182,-2.990134,145.9,135.9
14/04/2025 00:00:00,gcjgtt107cng,SHELL,M5 SOUTH MOTORWAY,BS26 2UF,51.267749,-2.92082,171.9,162.9
14/04/2025 00:00:00,gcjjtkf2mh87,SHELL,76-78 GOWER ROAD,SA2 9BZ,51.617957,-3.984732,141.9,135.9
14/04/2025 00:00:00,gcjm8q11q506,SHELL,Fabian Way,SA10 6JW,51.624987,-3.85457,141.9,135.9
14/04/2025 00:00:00,gcjskytmunjm,SHELL,PONTYPRIDD ROAD,CF62 7LT,51.408796,-3.299496,144.9,138.9
14/04/2025 00:00:00,gcjt9sb2dhjc,SHELL,TYLACELYN ROAD,CF40 1JR,51.617997,-3.44927,139.9,131.9
14/04/2025 00:00:00,gcjve9pbc444,SHELL,1 MALPAS ROAD,NP20 5PA,51.59743,-2.999565,145.9,139.9
14/04/2025 00:00:00,gcjyg145r28s,SHELL,"MERTHYR ROAD,",NP7 9LL,51.817578,-3.029168,147.9,136.9
14/04/2025 00:00:00,gcmmcxgjkwds,SHELL,WATERLOO BRIDGE,LL24 0AR,53.085501,-3.796953,146.9,139.9
14/04/2025 00:00:00,gcmnc1mw3hxy,SHELL,Mona Road,LL59 5EB,53.225738,-4.167198,143.9,134.9
14/04/2025 00:00:00,gcmr1epk2y8x,SHELL,Conway Road,LL28 5LE,53.278964,-3.79128,143.9,137.9
14/04/2025 00:00:00,gcmrjj6bqty6,SHELL,A55 Interchange  Abergele Road,LL22 8HH,53.290632,-3.643397,147.9,141.9
14/04/2025 00:00:00,gcmv4b879z1h,SHELL,HOLYHEAD ROAD,SY11 3EN,52.913542,-3.042793,145.9,141.9
14/04/2025 00:00:00,gcmvg9fcfb6q,SHELL,MOLD ROAD,LL11 2AF,53.051908,-3.006356,139.9,133.9
14/04/2025 00:00:00,gcmy91q4wwpb,SHELL,CHESTER ROAD,CH7 6LQ,53.181156,-3.111588,145.9,138.9
14/04/2025 00:00:00,gcmy9g7zhvxv,SHELL,A55,CH7 6HB,53.192913,-3.081794,149.9,142.9
14/04/2025 00:00:00,gcmy9sq8xj6j,SHELL,"EXPRESSWAY,",CH7 6HF,53.197289,-3.088915,149.9,142.9
14/04/2025 00:00:00,gcmywgxfsrcw,SHELL,Tarvin Road,CH3 5NJ,53.193526,-2.856604,141.9,136.9
14/04/2025 00:00:00,gcmywkxegzyr,SHELL,HOOLE ROAD,CH2 3NH,53.199234,-2.878935,143.9,137.9
14/04/2025 00:00:00,gcmz3ffp213f,SHELL,Chester Road,CH60 3RY,53.322022,-3.084409,143.9,135.9
14/04/2025 00:00:00,gcmz4vbmwbgd,SHELL,CHESTER HIGH ROAD,CH64 7TA,53.294253,-3.042575,143.9,133.9
14/04/2025 00:00:00,gcmz9mz65t5h,SHELL,Arrowe Park Road,CH49 0UE,53.381566,-3.09902,143.9,135.9
14/04/2025 00:00:00,gcmzdyr8848y,SHELL,413 BOROUGH ROAD,CH42 0HA,53.384042,-3.032912,143.9,135.9
14/04/2025 00:00:00,gcmzk99v1ygh,SHELL,1201 NEW CHESTER ROAD,CH62 0BZ,53.314799,-2.963826,139.9,133.9
14/04/2025 00:00:00,gcmznhhmekgm,SHELL,STATION ROAD,CH65 4AX,53.284662,-2.89441,145.9,135.9
14/04/2025 00:00:00,gcmztr7c5y4z,SHELL,224 SMITHDOWN ROAD,L15 5AH,53.38964,-2.928035,142.9,135.9
14/04/2025 00:00:00,gcmzx1c769de,SHELL,89 HILLFOOT AVENUE,L25 0NS,53.359789,-2.854618,145.9,136.9
14/04/2025 00:00:00,gcmzy1b6vd1d,SHELL,44-48 QUEENS DRIVE,L15 7NE,53.403651,-2.899809,141.9,135.9
14/04/2025 00:00:00,gcmzzhv63t8n,SHELL,Liverpool Road,L36 3RN,53.420064,-2.849171,145.9,136.9
14/04/2025 00:00:00,gcn288w4f0sw,SHELL,29B LONDON ROAD,DT1 1NF,50.716113,-2.430633,143.9,136.9
14/04/2025 00:00:00,gcn2txvmw0yx,SHELL,A35 NORTH STREET,BH20 7LA,50.756412,-2.211762,148.9,144.9
14/04/2025 00:00:00,gcn4cyhz30un,SHELL,WIRRAL PARK ROAD,BA6 9XE,51.142607,-2.729024,147.9,139.9
14/04/2025 00:00:00,gcn4m3y6nvut,SHELL,A303 SPARKFORD,BA22 7JE,51.030496,-2.572908,149.9,139.9
14/04/2025 00:00:00,gcn8dyegdb0m,SHELL,13-17 WATERLOO ROAD,BH17 7JX,50.749198,-1.983257,141.9,138.9
14/04/2025 00:00:00,gcnb8mucpvy3,SHELL,LYNDHURST ROAD,BH23 4SA,50.744679,-1.739962,147.9,139.9
14/04/2025 00:00:00,gcnbswuut5fv,SHELL,33 MILFORD ROAD,SO41 8DH,50.750763,-1.553317,142.9,136.9
14/04/2025 00:00:00,gcnc29ex8fbf,SHELL,A31,BH24 3HN,50.854269,-1.731,149.9,141.9
14/04/2025 00:00:00,gcnc29sjn4pe,SHELL,PICKET POST,BH24 3HN,50.853836,-1.730079,149.9,141.9
14/04/2025 00:00:00,gcncxx2z2tg1,SHELL,234 WINCHESTER ROAD,SO16 6TL,50.929773,-1.427167,145.9,138.9
14/04/2025 00:00:00,gcndw9tpg18h,SHELL,133 WILTON ROAD,SP2 7JB,51.074032,-1.816735,146.9,136.9
14/04/2025 00:00:00,gcndx1b3r8s5,SHELL,CHURCHILL WAY WEST,SP2 7TS,51.074284,-1.801087,146.9,136.9
14/04/2025 00:00:00,gcnepkxzxvhk,SHELL,A303,SP4 7AS,51.178378,-1.77979,149.9,141.9
14/04/2025 00:00:00,gcngmd9tb1dm,SHELL,280 WEYHILL ROAD,SP10 3LS,51.211018,-1.51405,143.9,136.9
14/04/2025 00:00:00,gcnhch8v0j6f,SHELL,HARBOUR ROAD,BS20 7DE,51.485567,-2.767521,145.9,138.9
14/04/2025 00:00:00,gcnhtsyshhsq,SHELL,ST PHILIPS CAUSEWAY,BS4 3EX,51.44282,-2.561697,139.9,132.9
14/04/2025 00:00:00,gcnhv20n6enw,SHELL,NEWFOUNDLAND ROAD,BS2 9LU,51.461051,-2.581671,141.9,133.9
14/04/2025 00:00:00,gcnjh7h5dkex,SHELL,CRIBBS CAUSEWAY,BS10 7TG,51.521012,-2.620138,142.9,134.9
14/04/2025 00:00:00,gcnjp245ptsx,SHELL,Badminton Road,BS36 1AH,51.504452,-2.490822,143.9,135.9
14/04/2025 00:00:00,gcnndpj2c79r,SHELL,CINDERHILL STREET OVERMONNOW ROAD,NP25 5EZ,51.806179,-2.717344,146.9,139.9
14/04/2025 00:00:00,gcnngr7c39s4,SHELL,A40 NORTHBOUND,HR9 6DP,51.851572,-2.664458,143.9,134.9
14/04/2025 00:00:00,gcnq7meqdj7u,SHELL,Westend Roundabout,GL10 3SJ,51.75499,-2.313561,144.9,134.9
14/04/2025 00:00:00,gcnqj7tj1h2z,SHELL,Stroud Road,GL6 0BE,51.699796,-2.223314,145.9,138.9
14/04/2025 00:00:00,gcnqzje46fy3,SHELL,Cirencester Road,GL3 4PL,51.842137,-2.149074,141.9,135.9
14/04/2025 00:00:00,gcntq7qn6dmu,SHELL,SHAW ROAD,SN5 5XS,51.56679,-1.826362,143.9,136.9
14/04/2025 00:00:00,gcnut8t98n2u,SHELL,1 1 BATH ROAD,RG17 0HD,51.419054,-1.508559,146.9,141.9
14/04/2025 00:00:00,gcnw78n0wwj9,SHELL,BURFORD ROAD,GL7 5DS,51.723751,-1.94704,143.9,138.9
14/04/2025 00:00:00,gcnx0p5h6rhj,SHELL,352-356 GLOUCESTER ROAD,GL51 7AY,51.894689,-2.105153,138.9,131.9
14/04/2025 00:00:00,gcnx2890wwn4,SHELL,HONEYBOURNE WAY,GL50 3QW,51.902279,-2.085742,138.9,131.9
14/04/2025 00:00:00,gcnyw11ns0hv,SHELL,DUCKLINGTON LANE,OX28 4TT,51.774188,-1.492589,143.9,137.9
14/04/2025 00:00:00,gcnzt33wpkbk,SHELL,CHAPEL CROSS ROADS,OX7 5SX,51.951282,-1.524728,149.9,142.9
14/04/2025 00:00:00,gcp0vyd31zs5,SHELL,PRIVETT ROAD,PO12 3SR,50.792754,-1.150394,146.9,136.9
14/04/2025 00:00:00,gcp0zwvs7ewt,SHELL,GOLDSMITH AVENUE,PO4 8BH,50.794664,-1.068948,141.9,136.9
14/04/2025 00:00:00,gcp12h34fk25,SHELL,SOUTHAMPTON ROAD,SO45 5DA,50.868568,-1.40478,145.9,137.9
14/04/2025 00:00:00,gcp17dj0rcps,SHELL,264 SOUTHAMPTON ROAD,PO14 4BB,50.855762,-1.245232,145.9,139.9
14/04/2025 00:00:00,gcp1b59xw3gt,SHELL,CHILWORTH ROUNDABOUT,SO16 7LQ,50.953141,-1.403917,145.9,138.9
14/04/2025 00:00:00,gcp1b8g79u47,SHELL,THOMAS LEWIS WAY,SO17 3ED,50.93736,-1.379736,145.9,138.9
14/04/2025 00:00:00,gcp1by718tx5,SHELL,PASSFIELD AVENUE,SO50 9NH,50.967237,-1.36914,143.9,136.9
14/04/2025 00:00:00,gcp1p38k4ggz,SHELL,KETTERING TERRACE,PO2 7SB,50.809729,-1.08718,144.9,139.9
14/04/2025 00:00:00,gcp1pw5meejg,SHELL,LONDON ROAD,PO2 9RR,50.834701,-1.072039,144.9,138.9
14/04/2025 00:00:00,gcp1t13g373f,SHELL,FAREHAM ROAD,PO17 5BY,50.896114,-1.184064,147.9,139.9
14/04/2025 00:00:00,gcp2uvuytxhw,SHELL,BIRDHAM STRAIGHT,PO20 7HU,50.789576,-0.839182,145.9,139.9
14/04/2025 00:00:00,gcp30q3pfhwj,SHELL,EASTERN ROAD,PO6 1UW,50.836469,-1.042234,143.9,138.9
14/04/2025 00:00:00,gcp32mywvdtg,SHELL,222 LONDON ROAD,PO7 7AA,50.877485,-1.034531,143.9,137.9
14/04/2025 00:00:00,gcp33zncqjtp,SHELL,ROWLANDS CASTLE,PO9 6BB,50.883424,-0.968249,142.9,136.9
14/04/2025 00:00:00,gcp369863we7,SHELL,A27(T)  EASTBOUND,PO10 7RB,50.853388,-0.944412,149.9,139.9
14/04/2025 00:00:00,gcp40f0k2ujw,SHELL,130 Winchester Road,SO53 2DS,50.988301,-1.372908,143.9,135.9
14/04/2025 00:00:00,gcp4d903b8cr,SHELL,EASTON LANE,SO23 7SL,51.070252,-1.29602,139.9,133.9
14/04/2025 00:00:00,gcp4wg64nk1x,SHELL,The Dene,SO24 0BG,51.082672,-1.106602,149.9,143.9
14/04/2025 00:00:00,gcp512eqcm3h,SHELL,A34 WINCHESTER BY PASS NORTHBOUND,SO21 3JY,51.156278,-1.3468,149.9,144.9
14/04/2025 00:00:00,gcp512vebc9e,SHELL,A34 WINCHESTER BY PASS SOUTHBOUND,SO21 3JY,51.157116,-1.343731,149.9,144.9
14/04/2025 00:00:00,gcp5w7crt8nh,SHELL,374 WORTING ROAD,RG22 5DZ,51.262122,-1.129631,147.9,139.9
14/04/2025 00:00:00,gcp5w9uc2kh5,SHELL,Winchester Road,RG22 6HT,51.250084,-1.114066,147.9,139.9
14/04/2025 00:00:00,gcp6t77e28zy,SHELL,A3 T SOUTH,GU30 7TU,51.082869,-0.819136,146.9,142.9
14/04/2025 00:00:00,gcp6t7e2sfx5,SHELL,A3 T NORTH,GU30 7TT,51.083779,-0.819298,146.9,142.9
14/04/2025 00:00:00,gcp7dpujfrbv,SHELL,LONDON ROAD,RG27 9DZ,51.283836,-0.961206,145.9,137.9
14/04/2025 00:00:00,gcp7mrp4qymn,SHELL,ODIHAM ROAD,GU10 5AB,51.235162,-0.814065,141.9,135.9
14/04/2025 00:00:00,gcp7v0cj6wyn,SHELL,22 Fleet Road,GU51 4QG,51.289238,-0.833472,139.9,135.9
14/04/2025 00:00:00,gcp7v9tkry8w,SHELL,171 COVE ROAD,GU51 2SH,51.293185,-0.805445,138.9,132.9
14/04/2025 00:00:00,gcp7wy3ey5k9,SHELL,22 FARNBOROUGH ROAD,GU14 6AY,51.275228,-0.755733,145.9,137.9
14/04/2025 00:00:00,gcp7yujsxm30,SHELL,326 FARNBOROUGH ROAD,GU14 8BD,51.306953,-0.750191,145.9,137.9
14/04/2025 00:00:00,gcp931zqkptx,SHELL,ARUNDEL ROAD,BN18 0SB,50.855454,-0.649044,149.9,141.9
14/04/2025 00:00:00,gcp9h581w35k,SHELL,"RUSTINGTON BYPASS,",BN17 6LE,50.820271,-0.527071,144.9,139.9
14/04/2025 00:00:00,gcpc1mnc6c5j,SHELL,BRIGHTON ROAD,BN43 5LD,50.828468,-0.287239,145.9,139.9
14/04/2025 00:00:00,gcpc9z1rkvvg,SHELL,GOLDEN SQUARE,BN5 9DP,50.9284,-0.27273,148.9,141.9
14/04/2025 00:00:00,gcpcgwkkfrr3,SHELL,JOBS LANE,RH17 5NZ,50.967804,-0.191811,151.9,144.9
14/04/2025 00:00:00,gcpchnbjhcpz,SHELL,132-134 OLD SHOREHAM ROAD,BN3 7BD,50.838725,-0.175567,146.9,139.9
14/04/2025 00:00:00,gcpchx98vngb,SHELL,193 PRESTON ROAD,BN1 6SA,50.842145,-0.151529,146.9,139.9
14/04/2025 00:00:00,gcpdxbyrx0n5,SHELL,OLD GUILDFORD ROAD,RH12 3NS,51.069861,-0.353657,144.9,138.9
14/04/2025 00:00:00,gcpe69txm50g,SHELL,PORTSMOUTH ROAD,GU3 1NA,51.20579,-0.585493,142.9,134.9
14/04/2025 00:00:00,gcped6zrkw26,SHELL,200-202 WORPLESDON ROAD,GU2 9UY,51.256619,-0.594098,144.9,136.9
14/04/2025 00:00:00,gcpedc4g4qv3,SHELL,WOODBRIDGE ROAD,GU1 1EF,51.246279,-0.578395,141.9,134.9
14/04/2025 00:00:00,gcpedcksfgd8,SHELL,14 LADYMEAD ROAD,GU1 1DL,51.247935,-0.575974,141.9,134.9
14/04/2025 00:00:00,gcpege6719g0,SHELL,65 HIGH STREET,GU22 9LN,51.302557,-0.546158,141.9,135.9
14/04/2025 00:00:00,gcpesrd4qshr,SHELL,PORTSMOUTH ROAD,GU23 7JY,51.281842,-0.513326,142.9,136.9
14/04/2025 00:00:00,gcpewhn0vswb,SHELL,GUILDFORD LODGE DRIVE,KT24 6TA,51.26236,-0.430968,141.9,133.9
14/04/2025 00:00:00,gcpeyev9ev07,SHELL,M25 JUNCTION 9/10,KT11 3JS,51.305064,-0.409766,171.9,162.9
14/04/2025 00:00:00,gcpf2hkjkr6b,SHELL,Worthing Road,RH13 0AR,51.044794,-0.345883,145.9,139.9
14/04/2025 00:00:00,gcpfjfz7p421,SHELL,5 LEWES ROAD,RH17 7SE,50.992196,-0.08862,139.9,134.9
14/04/2025 00:00:00,gcpgchs8qr2p,SHELL,7 THE STREET,KT21 2AD,51.308982,-0.301169,147.9,141.9
14/04/2025 00:00:00,gcpgd0gtu7r3,SHELL,REIGATE ROAD,RH3 7ED,51.245359,-0.258673,146.9,139.9
14/04/2025 00:00:00,gcpgem03xf3x,SHELL,BRIGHTON ROAD,KT20 6UP,51.267971,-0.208062,145.9,136.9
14/04/2025 00:00:00,gcpgfupbvrcz,SHELL,"BRIGHTON ROAD,",KT20 6AA,51.306324,-0.219842,146.9,139.9
14/04/2025 00:00:00,gcpgh1cwuzk5,SHELL,LONGBRIDGE WAY,RH6 0NX,51.163155,-0.173512,144.9,136.9
14/04/2025 00:00:00,gcpghm0v7500,SHELL,BRIGHTON ROAD,RH6 7JU,51.180727,-0.163636,141.9,134.9
14/04/2025 00:00:00,gcpgk5s4653x,SHELL,19 HORLEY ROAD,RH1 5AL,51.21592,-0.1702,144.9,137.9
14/04/2025 00:00:00,gcpgps0gbwgg,SHELL,1 GODSTONE ROAD,RH7 6BN,51.174997,-0.020916,147.9,139.9
14/04/2025 00:00:00,gcpgv743ydc7,SHELL,215 COULSDON ROAD,CR5 1EN,51.300975,-0.117479,146.9,139.9
14/04/2025 00:00:00,gcpgw6x2hje1,SHELL,GODSTONE HILL,RH9 8AJ,51.253997,-0.066772,149.9,142.9
14/04/2025 00:00:00,gcpgxg75hvms,SHELL,CHURCH LANE,RH8 9NB,51.258631,-0.006655,149.9,141.9
14/04/2025 00:00:00,gcpgy5xud0ty,SHELL,408 GODSTONE ROAD,CR3 0BB,51.304182,-0.077154,147.9,139.9
14/04/2025 00:00:00,gcph17wc6twj,SHELL,A34 NEWBURY BYPASS,RG20 9BX,51.347596,-1.341933,149.9,144.9
14/04/2025 00:00:00,gcph3w8h0s3h,SHELL,BATH ROAD,RG14 1QT,51.408486,-1.340309,146.9,141.9
14/04/2025 00:00:00,gcpk9bm48bvt,SHELL,585 Basingstoke Road,RG2 0TA,51.417823,-0.970877,144.9,136.9
14/04/2025 00:00:00,gcpkmppzdjfr,SHELL,109-111 LONDON ROAD,RG40 1YD,51.411842,-0.824229,147.9,139.9
14/04/2025 00:00:00,gcpkqyp2qj65,SHELL,"BAGSHOT ROAD,",RG12 9RP,51.405101,-0.74784,145.9,139.9
14/04/2025 00:00:00,gcpks898cqex,SHELL,READING ROAD,RG41 1HB,51.418927,-0.854815,148.9,139.9
14/04/2025 00:00:00,gcpmgkt26h1z,SHELL,109 OXFORD ROAD,HP14 3SX,51.660527,-0.904567,147.9,141.9
14/04/2025 00:00:00,gcpmrvbj55te,SHELL,MARLOW ROAD,SL8 5SE,51.580315,-0.713975,147.9,141.9
14/04/2025 00:00:00,gcpmwsdp9g1x,SHELL,MARLOW ROAD,HP11 1TB,51.617821,-0.766219,142.9,134.9
14/04/2025 00:00:00,gcpmxu6dg791,SHELL,722 722 London Road,HP11 1HE,51.615634,-0.710537,147.9,139.9
14/04/2025 00:00:00,gcpmzfctn99c,SHELL,HAZLEMERE CROSS ROADS,HP15 7LG,51.651715,-0.71177,145.9,136.9
14/04/2025 00:00:00,gcpnk987z6uv,SHELL,"44-48 GARSINGTON ROAD,",OX4 2LG,51.732532,-1.207835,146.9,141.9
14/04/2025 00:00:00,gcpnkqe8ns58,SHELL,LONDON ROAD,OX3 7RD,51.75936,-1.214392,147.9,139.9
14/04/2025 00:00:00,gcpnupkhm18g,SHELL,A34,OX25 3QQ,51.852087,-1.22476,148.9,143.9
14/04/2025 00:00:00,gcppjyu66hw0,SHELL,LONDON ROAD,OX26 6HB,51.892958,-1.147634,139.9,135.9
14/04/2025 00:00:00,gcpqk9gxtdke,SHELL,LOWER ICKNIELD WAY,HP27 9RZ,51.734546,-0.851885,146.9,139.9
14/04/2025 00:00:00,gcpqxq3883dk,SHELL,62-64 AYLESBURY ROAD,HP22 5AH,51.802005,-0.73401,144.9,134.9
14/04/2025 00:00:00,gcprc8rqdrc5,SHELL,LONDON ROAD,MK18 1SH,51.989836,-0.978715,143.9,138.9
14/04/2025 00:00:00,gcpryy7ddq1u,SHELL,GRAFTON STREET,MK6 5LY,52.022099,-0.753151,143.9,138.9
14/04/2025 00:00:00,gcps5yebe3bx,SHELL,Guildford Road,KT16 0PG,51.363927,-0.53304,147.9,141.9
14/04/2025 00:00:00,gcps6wc26yrd,SHELL,LONDON ROAD,GU25 4QF,51.409226,-0.591417,145.9,138.9
14/04/2025 00:00:00,gcpscew7hxmb,SHELL,CLARENCE ROAD,SL4 5AN,51.479741,-0.628423,146.9,138.9
14/04/2025 00:00:00,gcpsgpegcyeu,SHELL,85 LONDON ROAD,SL3 7RS,51.501839,-0.566059,142.9,137.9
14/04/2025 00:00:00,gcpsj7qg7dv7,SHELL,BROOKLANDS ROAD,KT13 0RP,51.346551,-0.462985,142.9,137.9
14/04/2025 00:00:00,gcpsjzb5xjrm,SHELL,181 OATLANDS DRIVE,KT13 9DJ,51.371327,-0.450129,144.9,138.9
14/04/2025 00:00:00,gcpskbc6g69z,SHELL,CHERTSEY ROAD,KT15 2ED,51.376677,-0.492526,146.9,139.9
14/04/2025 00:00:00,gcpsnc9jxetp,SHELL,270 PORTSMOUTH ROAD,KT11 1HU,51.337329,-0.404792,142.9,138.9
14/04/2025 00:00:00,gcpssedne7ud,SHELL,93-101 LONDON ROAD,TW18 4HN,51.436378,-0.502479,146.9,139.9
14/04/2025 00:00:00,gcpst64nywbq,SHELL,102 FORDBRIDGE ROAD,TW15 3RX,51.428198,-0.469386,148.9,141.9
14/04/2025 00:00:00,gcpsv5frcd21,SHELL,400 COLNBROOK BYPASS,UB7 0HB,51.481903,-0.480244,144.9,139.9
14/04/2025 00:00:00,gcpsvmcvhcx2,SHELL,HOLLOWAY LANE,UB7 0AE,51.492413,-0.469795,144.9,139.9
14/04/2025 00:00:00,gcpsx5m1rvj1,SHELL,74 Country Way,TW13 6QN,51.43411,-0.388302,145.9,139.9
14/04/2025 00:00:00,gcpsxu20nu3e,SHELL,STAINES ROAD,TW2 5JA,51.439385,-0.362257,146.9,139.9
14/04/2025 00:00:00,gcpt072t4387,SHELL,237 BATH ROAD,SL6 0AP,51.522626,-0.691355,144.9,137.9
14/04/2025 00:00:00,gcpt17kpy6w9,SHELL,56 BURNHAM LANE,SL1 6JY,51.523103,-0.642423,144.9,137.9
14/04/2025 00:00:00,gcpt3xwrmv0z,SHELL,A355 A355 TOWARDS SLOUGH,HP9 2SE,51.590323,-0.628376,171.9,162.9
14/04/2025 00:00:00,gcptj4kcn1jy,SHELL,209 209 HIGH ROAD,UB7 7QP,51.516444,-0.47661,143.9,138.9
14/04/2025 00:00:00,gcptkw5dj6rw,SHELL,NORTH ORBITAL ROAD DENHAM,UB9 5EY,51.581167,-0.500329,149.9,141.9
14/04/2025 00:00:00,gcptmgmyr68d,SHELL,55 HIGH ROAD,UB10 8LF,51.566791,-0.442231,143.9,135.9
14/04/2025 00:00:00,gcptpjfs55fc,SHELL,529 YEADING LANE,UB5 6LW,51.536199,-0.391942,143.9,138.9
14/04/2025 00:00:00,gcptqc2f5pu0,SHELL,300 WEST END ROAD,HA4 6QQ,51.555103,-0.40533,143.9,137.9
14/04/2025 00:00:00,gcptuegx54b8,SHELL,Rickmansworth Road,WD3 5SE,51.657558,-0.500435,145.9,139.9
14/04/2025 00:00:00,gcptx115seh0,SHELL,21 PINNER GREEN,HA5 2AF,51.597907,-0.393936,144.9,139.9
14/04/2025 00:00:00,gcpty4der4z1,SHELL,185-187 WATFORD ROAD,WD3 3ED,51.650048,-0.43571,143.9,137.9
14/04/2025 00:00:00,gcpu2232d14p,SHELL,Kingston Bypass,KT10 9TL,51.373536,-0.338771,147.9,141.9
14/04/2025 00:00:00,gcpu30e59rpu,SHELL,Hook Road,KT6 5AT,51.375456,-0.303433,147.9,141.9
14/04/2025 00:00:00,gcpu3rw6403r,SHELL,187-201 LONDON ROAD,KT2 6PQ,51.413615,-0.28796,146.9,139.9
14/04/2025 00:00:00,gcpu4ku39w1k,SHELL,EWELL BY PASS,KT17 2PU,51.354508,-0.246783,145.9,139.9
14/04/2025 00:00:00,gcpu5qn1q8uf,SHELL,56-58 CHEAM ROAD,SM1 2SS,51.361303,-0.200215,146.9,139.9
14/04/2025 00:00:00,gcpu6z44vy1z,SHELL,WORPLE ROAD,SW20 8RE,51.411028,-0.227717,146.9,141.9
14/04/2025 00:00:00,gcpu7bwf6y6z,SHELL,123-125 WRYTHE LANE,SM5 2RU,51.375238,-0.177376,147.9,141.9
14/04/2025 00:00:00,gcpu7jsr7683,SHELL,262 MARTIN WAY,SM4 4AW,51.403541,-0.21375,146.9,141.9
14/04/2025 00:00:00,gcpu7zq5v8xk,SHELL,231 WESTERN ROAD,SW19 2QD,51.412543,-0.178282,146.9,139.9
14/04/2025 00:00:00,gcpu8tgj5v2c,SHELL,RICHMOND ROAD,TW1 3AB,51.448488,-0.325308,146.9,141.9
14/04/2025 00:00:00,gcpu90sm34vh,SHELL,164 Richmond Road,KT2 5HD,51.419679,-0.301731,147.9,139.9
14/04/2025 00:00:00,gcpubs30u1tc,SHELL,882 GREAT WEST ROAD,TW7 5NG,51.483444,-0.328037,145.9,138.9
14/04/2025 00:00:00,gcpuc2m7nxnc,SHELL,174-176 SHEEN ROAD,TW9 1XD,51.461887,-0.289133,147.9,139.9
14/04/2025 00:00:00,gcpuc93rk4rt,SHELL,22-24 22-24 LOWER RICHMOND ROAD,TW9 4LJ,51.468085,-0.283746,145.9,137.9
14/04/2025 00:00:00,gcpudw49dvuq,SHELL,"237-239 ROEHAMPTON LANE,",SW15 4LB,51.449264,-0.238142,144.9,138.9
14/04/2025 00:00:00,gcpuef89my2f,SHELL,59 PLOUGH LANE,SW17 0BW,51.429997,-0.185833,149.9,143.9
14/04/2025 00:00:00,gcpufqtc44bb,SHELL,372 GOLDHAWK ROAD,W6 0XF,51.495853,-0.244702,147.9,141.9
14/04/2025 00:00:00,gcpugbg1jxsc,SHELL,262 York Road,SW18 1TP,51.464293,-0.182405,151.9,145.9
14/04/2025 00:00:00,gcpuggenxbgy,SHELL,49 TADEMA ROAD,SW10 0NY,51.480308,-0.18231,147.9,141.9
14/04/2025 00:00:00,gcpugvv3hnv6,SHELL,106 OLD BROMPTON ROAD,SW7 3RA,51.491755,-0.179379,147.9,139.9
14/04/2025 00:00:00,gcpuhw4j7y1e,SHELL,102 MANOR ROAD,SM6 0DW,51.362018,-0.150899,146.9,139.9
14/04/2025 00:00:00,gcpumfc9tn0k,SHELL,117 WHITEHORSE ROAD,CR0 2LG,51.387467,-0.096602,146.9,139.9
14/04/2025 00:00:00,gcpun2bbmg02,SHELL,81 LIMPSFIELD ROAD,CR2 9LE,51.332304,-0.075627,146.9,139.9
14/04/2025 00:00:00,gcpupjr8kpkq,SHELL,KENT GATEWAY,CR0 5AR,51.357047,-0.033468,148.9,141.9
14/04/2025 00:00:00,gcpuqkmtx1fp,SHELL,123-127 PORTLAND ROAD,SE25 4UX,51.396371,-0.069048,145.9,138.9
14/04/2025 00:00:00,gcpuqyzet09p,SHELL,128-136 BECKENHAM ROAD,BR3 4RH,51.409754,-0.044416,145.9,139.9
14/04/2025 00:00:00,gcpuswkdsc79,SHELL,75 BALHAM HILL,SW12 9DP,51.450784,-0.14742,148.9,142.9
14/04/2025 00:00:00,gcpuue7grspm,SHELL,326 QUEENSTOWN ROAD,SW11 8NE,51.478394,-0.148327,152.9,145.9
14/04/2025 00:00:00,gcpuutfmce5c,SHELL,EBURY STREET,SW1W 9QJ,51.49255,-0.150649,149.9,142.9
14/04/2025 00:00:00,gcpuvzfkyq4f,SHELL,101-103 Southwark Bridge Road,SE1 0AX,51.503381,-0.095515,144.9,136.9
14/04/2025 00:00:00,gcpuw38uu632,SHELL,4 CRYSTAL PALACE PARADE,SE19 1UN,51.425083,-0.07569,146.9,139.9
14/04/2025 00:00:00,gcpuytuqnbjf,SHELL,297-309 Southwark Park Road,SE16 2JN,51.492577,-0.059784,145.9,136.9
14/04/2025 00:00:00,gcpv0jetv3k5,SHELL,744-748 GREENFORD ROAD,UB6 8QQ,51.535113,-0.346525,147.9,139.9
14/04/2025 00:00:00,gcpv16k1dm66,SHELL,"29-31 HANGER LANE,",W5 3HJ,51.516552,-0.291038,146.9,138.9
14/04/2025 00:00:00,gcpv1s5f90fv,SHELL,ROYALE LEISURE PARK,W3 0BX,51.526313,-0.280448,146.9,139.9
14/04/2025 00:00:00,gcpv258c1pxf,SHELL,140 NORTHOLT ROAD,HA2 0EG,51.56729,-0.350479,144.9,137.9
14/04/2025 00:00:00,gcpv4zy5befj,SHELL,290 WILLESDEN LANE,NW2 5HS,51.547143,-0.222449,142.9,136.9
14/04/2025 00:00:00,gcpv5c4p2y4v,SHELL,"104-105 BAYSWATER ROAD,",W2 3HT,51.510677,-0.183985,147.9,139.9
14/04/2025 00:00:00,gcpv5duxs5sp,SHELL,223 HARROW ROAD,W2 5EH,51.52032,-0.191397,147.9,138.9
14/04/2025 00:00:00,gcpv5rg2nrfb,SHELL,409 KILBURN HIGH ROAD,NW6 7QE,51.54652,-0.204005,142.9,134.9
14/04/2025 00:00:00,gcpv61z46x07,SHELL,369 NORTH CIRCULAR ROAD,NW10 0PH,51.557889,-0.253951,143.9,138.9
14/04/2025 00:00:00,gcpvcur75xup,SHELL,ELSTREE WAY,WD6 1LB,51.659646,-0.264546,141.9,134.9
14/04/2025 00:00:00,gcpvd0be7jc5,SHELL,421 Edgware Road,NW9 0HS,51.596506,-0.262855,145.9,137.9
14/04/2025 00:00:00,gcpvdjw1nt19,SHELL,APEX CORNER,NW7 3ET,51.622208,-0.255151,144.9,137.9
14/04/2025 00:00:00,gcpvf1r78tjk,SHELL,STIRLING CORNER,EN5 3JG,51.643237,-0.253687,139.9,134.9
14/04/2025 00:00:00,gcpvjgzhwqs0,SHELL,198-208 OLD STREET,EC1V 9BP,51.525313,-0.08899,151.9,143.9
14/04/2025 00:00:00,gcpvjpex2yux,SHELL,109-113 YORK WAY,N7 9QE,51.546387,-0.126991,148.9,139.9
14/04/2025 00:00:00,gcpvjwtqqh24,SHELL,276 UPPER STREET,N1 2TZ,51.540708,-0.102396,146.9,142.9
14/04/2025 00:00:00,gcpvm82vfz9t,SHELL,104-116 HOLLOWAY ROAD,N7 8JE,51.550253,-0.108713,146.9,139.9
14/04/2025 00:00:00,gcpvmn6dfbg2,SHELL,93-113 PARK ROAD,N8 8JN,51.58266,-0.12828,146.9,136.9
14/04/2025 00:00:00,gcpvnd86hw4x,SHELL,139-149 Whitechapel Road,E1 1DT,51.518016,-0.065378,143.9,136.9
14/04/2025 00:00:00,gcpvpt868sdn,SHELL,445-453 Wick Lane,E3 2TB,51.534573,-0.021605,144.9,137.9
14/04/2025 00:00:00,gcpvqduzrpcb,SHELL,144-150 UPPER CLAPTON ROAD,E5 9JZ,51.564244,-0.059092,147.9,138.9
14/04/2025 00:00:00,gcpvs8whn5q4,SHELL,11 Colney Hatch Lane,N10 1QB,51.595248,-0.145303,145.9,139.9
14/04/2025 00:00:00,gcpvts0ke5zt,SHELL,148-150 Green Lanes,N13 5UN,51.614563,-0.109381,145.9,137.9
14/04/2025 00:00:00,gcpvxgph5nd8,SHELL,470 LARKSHALL ROAD,E4 9HH,51.608998,-0.001241,146.9,139.9
14/04/2025 00:00:00,gcpvytnd7qpe,SHELL,790 GREAT CAMBRIDGE ROAD,EN1 4JR,51.663627,-0.056842,141.9,134.9
14/04/2025 00:00:00,gcpvz8n1rc5v,SHELL,53 SEWARDSTONE ROAD,E4 7PU,51.635963,-0.013395,147.9,139.9
14/04/2025 00:00:00,gcpw4ny177vm,SHELL,VALE ROAD,HP5 2AU,51.717002,-0.606848,146.9,139.9
14/04/2025 00:00:00,gcpw6znq4g99,SHELL,"345  HIGH STREET,",HP4 1AL,51.763134,-0.573572,142.9,134.9
14/04/2025 00:00:00,gcpw7gm07gmw,SHELL,A41 SERVICE AREA,HP1 2SB,51.741547,-0.531295,142.9,134.9
14/04/2025 00:00:00,gcpwn1kvgv5y,SHELL,WATFORD ROAD,WD4 8QS,51.687569,-0.432764,142.9,137.9
14/04/2025 00:00:00,gcpwp028jxn5,SHELL,ST ALBANS ROAD,WD24 7RU,51.681099,-0.394577,135.9,129.9
14/04/2025 00:00:00,gcpwpxx0fksj,SHELL,551 Watford Road,AL2 3EH,51.72104,-0.36382,146.8,138.9
14/04/2025 00:00:00,gcpwqmbn93j3,SHELL,Breakspear Way,HP2 4TZ,51.75634,-0.428406,144.9,136.9
14/04/2025 00:00:00,gcpwxhe57m27,SHELL,REDBOURNE ROAD,AL3 7AD,51.792884,-0.391248,146.9,141.9
14/04/2025 00:00:00,gcpx30rhe72h,SHELL,BILLINGTON ROAD,LU7 9HH,51.901578,-0.649427,141.9,135.9
14/04/2025 00:00:00,gcpxb0g0gvsx,SHELL,WATLING STREET,MK17 9NE,51.991584,-0.698838,141.9,136.9
14/04/2025 00:00:00,gcpxhxsj2gy9,SHELL,Poynters Road,LU5 4SN,51.897589,-0.499837,141.9,135.9
14/04/2025 00:00:00,gcpxpm010yv7,SHELL,Eaton Green Road,LU2 9HD,51.883143,-0.384482,145.9,138.9
14/04/2025 00:00:00,gcpxqbxd0z0f,SHELL,"HITCHIN ROAD,",LU2 7UP,51.902542,-0.396161,145.9,138.9
14/04/2025 00:00:00,gcpxut4xregs,SHELL,101 101 AMPTHILL ROAD,MK45 1BE,52.016036,-0.501611,145.9,141.9
14/04/2025 00:00:00,gcpy3dt1jqtu,SHELL,NORTH ORBITAL ROAD,AL4 0NG,51.737573,-0.278545,147.9,139.9
14/04/2025 00:00:00,gcpy3vsz2dg6,SHELL,608 Hatfield Road,AL4 0HP,51.755105,-0.268109,144.9,139.9
14/04/2025 00:00:00,gcpyehwkzp8n,SHELL,STANBOROUGH ROAD,AL8 6XA,51.793154,-0.210843,144.9,139.9
14/04/2025 00:00:00,gcpyr6xukvez,SHELL,"197 HIGH ROAD,",EN10 6PY,51.738126,-0.022107,147.9,139.9
14/04/2025 00:00:00,gcpz7gy1rz7b,SHELL,BRADMAN WAY,SG1 5RE,51.920267,-0.17819,142.9,136.9
14/04/2025 00:00:00,gcpz9d01mfs3,SHELL,Bedford Road,SG5 2TY,51.954574,-0.285392,147.9,143.9
14/04/2025 00:00:00,gcpzgkyjc4hb,SHELL,A1 JCT 10,SG7 5TR,52.014395,-0.200451,156.9,143.9
14/04/2025 00:00:00,gcq0f4n2g6ee,SHELL,A49 HOPE UNDER DINMORE,HR6 0PJ,52.174215,-2.715882,149.9,142.9
14/04/2025 00:00:00,gcq6pjdmbpy6,SHELL,KIDDERMINSTER ROAD,DY9 0JL,52.414054,-2.150222,143.9,137.9
14/04/2025 00:00:00,gcq7351e42g6,SHELL,SUTTON MADDOCK,TF11 9ND,52.619538,-2.414831,146.9,138.9
14/04/2025 00:00:00,gcq789rrn7q0,SHELL,HOLMER FARM ROAD,TF3 1QU,52.65457,-2.428732,149.9,141.9
14/04/2025 00:00:00,gcq7peshseng,SHELL,BIRMINGHAM ROAD,WV2 3LH,52.578609,-2.125652,142.9,133.9
14/04/2025 00:00:00,gcq7pjknstth,SHELL,95 Tettenhall Road,WV3 9NQ,52.588579,-2.147627,137.9,131.9
14/04/2025 00:00:00,gcq9zkx573v1,SHELL,STRATFORD ROAD,B94 6NS,52.364154,-1.781012,144.9,136.9
14/04/2025 00:00:00,gcqbbuxh50t4,SHELL,Evesham Road,CV37 9AS,52.188495,-1.715105,146.9,139.9
14/04/2025 00:00:00,gcqbckgkkwsn,SHELL,Shipston Road,CV37 7LP,52.189944,-1.698219,146.9,139.9
14/04/2025 00:00:00,gcqcdbp0x1r5,SHELL,Hertford Hill,CV35 7DZ,52.295015,-1.62704,146.9,141.9
14/04/2025 00:00:00,gcqd3ex499kz,SHELL,MANOR WAY,B62 8RJ,52.446421,-2.033773,144.9,138.9
14/04/2025 00:00:00,gcqd5h9dwt7v,SHELL,1020 Bristol Road South,B31 2QU,52.40799,-1.975195,145.9,139.9
14/04/2025 00:00:00,gcqd7ey8n0bk,SHELL,295 Harborne Lane,B17 0NT,52.447362,-1.946382,143.9,136.9
14/04/2025 00:00:00,gcqd9urb3xqb,SHELL,CHURCHBRIDGE,B69 2BD,52.494131,-2.021754,139.9,134.9
14/04/2025 00:00:00,gcqdf3fk5ceh,SHELL,Dudley Street,B70 9LS,52.524957,-2.007243,145.9,139.9
14/04/2025 00:00:00,gcqdkbtkq5pv,SHELL,78 Alcester Road South,B14 7PT,52.430251,-1.893157,142.9,133.9
14/04/2025 00:00:00,gcqdne34pe6m,SHELL,STRATFORD ROAD,B90 4AU,52.401027,-1.822032,143.9,135.9
14/04/2025 00:00:00,gcqdppeyd18j,SHELL,Warwick Road,B91 1BB,52.425136,-1.796522,146.9,138.9
14/04/2025 00:00:00,gcqdqkg5uer6,SHELL,STOCKFIELD ROAD,B27 6AR,52.453512,-1.830394,143.9,135.9
14/04/2025 00:00:00,gcqds2reh53w,SHELL,Bath Row,B15 1LS,52.47261,-1.912134,145.9,135.9
14/04/2025 00:00:00,gcqdtuwwuyvk,SHELL,288 288 WASHWOOD HEATH ROAD,B8 2UL,52.496618,-1.847552,147.9,139.9
14/04/2025 00:00:00,gcqdu4gf6wxc,SHELL,OLD WALSALL ROAD,B42 1DT,52.530176,-1.928326,146.9,137.9
14/04/2025 00:00:00,gcqdwepy2fyu,SHELL,STATION ROAD,B33 9AX,52.488271,-1.813046,144.9,137.9
14/04/2025 00:00:00,gcqdwxbnu966,SHELL,829 TYBURN ROAD,B24 9NY,52.514441,-1.823534,141.9,135.9
14/04/2025 00:00:00,gcqe0swt37yh,SHELL,WILLENHALL ROAD,WV13 3LP,52.584235,-2.078414,143.9,136.9
14/04/2025 00:00:00,gcqe5bhg0q18,SHELL,333 BIRMINGHAM ROAD,B43 7AP,52.559141,-1.938044,142.9,135.9
14/04/2025 00:00:00,gcqe9qhdhu1m,SHELL,Wolverhampton Road,WS11 1SL,52.679809,-2.048058,141.9,134.9
14/04/2025 00:00:00,gcqej1yszzf9,SHELL,Chester Road,B74 2HN,52.569064,-1.880386,146.9,139.9
14/04/2025 00:00:00,gcqekggmhqny,SHELL,CHESTER ROAD,WS9 9HS,52.62403,-1.89598,141.9,135.9
14/04/2025 00:00:00,gcqenm5jq2rj,SHELL,Lichfield Road,B74 2XH,52.586963,-1.830319,141.9,135.9
14/04/2025 00:00:00,gcqews9nugce,SHELL,London Road,WS14 9EQ,52.672383,-1.822151,145.9,138.9
14/04/2025 00:00:00,gcqezg828cgb,SHELL,RYKNIELD STREET,WS13 8RD,52.709751,-1.768418,154.9,146.9
14/04/2025 00:00:00,gcqezuzdt6x3,SHELL,RYKNIELD STREET,WS13 8RD,52.716965,-1.758264,154.9,146.9
14/04/2025 00:00:00,gcqf43w2cgs1,SHELL,Kenilworth Road,CV7 7DN,52.3912,-1.650272,144.9,136.9
14/04/2025 00:00:00,gcqf8yz33206,SHELL,Grimstock Hill,B46 1LD,52.507997,-1.714843,145.9,137.9
14/04/2025 00:00:00,gcqfmehsbdu7,SHELL,HOLBROOK LANE,CV6 4DG,52.444068,-1.509906,144.9,139.9
14/04/2025 00:00:00,gcqgsz91jet4,SHELL,BURTON ROAD,DE12 7AP,52.687874,-1.547456,167.9,158.9
14/04/2025 00:00:00,gcqhy5stdf2h,SHELL,CHESTER ROAD,TF9 2JQ,52.886394,-2.54253,146.9,137.9
14/04/2025 00:00:00,gcqkzjde3d7s,SHELL,A34,ST15 0HH,52.896994,-2.149818,147.9,138.8
14/04/2025 00:00:00,gcqmfugjqndx,SHELL,A500 / M6 A500 / M6 BARTHOMLEY ROAD,CW2 5PS,53.069022,-2.335707,171.9,161.9
14/04/2025 00:00:00,gcqmug95c225,SHELL,NEWCASTLE ROAD,ST7 1UP,53.061864,-2.25077,144.9,138.9
14/04/2025 00:00:00,gcqmwjq4ypk0,SHELL,Cobridge Road,ST1 5JQ,53.027397,-2.188763,141.9,136.9
14/04/2025 00:00:00,gcqnud5cdpuy,SHELL,Chester Road,CW8 2DX,53.22906,-2.609504,141.9,135.9
14/04/2025 00:00:00,gcqp030nhqwc,SHELL,JUNCTION 14 M56,CH2 4QZ,53.268277,-2.801322,169.9,159.9
14/04/2025 00:00:00,gcqp0b702jp9,SHELL,28 CHESTER ROAD,WA6 0EZ,53.263162,-2.775411,142.9,134.9
14/04/2025 00:00:00,gcqq8eujpysx,SHELL,"HOLMES CHAPEL ROAD,",CW10 0JB,53.195322,-2.433133,147.9,139.9
14/04/2025 00:00:00,gcqqmwbmnbpw,SHELL,CLAYTON BY PASS,CW12 1LR,53.167821,-2.218595,148.9,142.9
14/04/2025 00:00:00,gcqqyzdgrbs1,SHELL,147 147 Broken Cross,SK11 8TU,53.259533,-2.160192,146.9,141.9
14/04/2025 00:00:00,gcqr1zrgn5m4,SHELL,TOFT ROAD,WA16 0PE,53.302077,-2.373126,148.9,141.9
14/04/2025 00:00:00,gcqr9ugguxnu,SHELL,DUNHAM ROAD,WA14 4SN,53.376384,-2.378681,148.9,143.9
14/04/2025 00:00:00,gcqrf9ch51eg,SHELL,282 MANCHESTER ROAD,WA14 5NB,53.403863,-2.349567,141.9,138.9
14/04/2025 00:00:00,gcqrgc60x5xc,SHELL,ALTRINCHAM ROAD,M23 9AA,53.400526,-2.293085,143.9,138.9
14/04/2025 00:00:00,gcqrgr05gd7f,SHELL,CROSS STREET,M33 7JR,53.432663,-2.31796,144.9,137.9
14/04/2025 00:00:00,gcqrh0zfktv3,SHELL,Alderley Road,SK11 9AH,53.266256,-2.274313,149.9,142.9
14/04/2025 00:00:00,gcqrpd6prjsg,SHELL,MANCHESTER ROAD,SK10 2JJ,53.275353,-2.128294,146.9,141.9
14/04/2025 00:00:00,gcqrqhe91dzr,SHELL,ADLINGTON ROAD,SK9 2LN,53.330571,-2.192385,146.9,141.9
14/04/2025 00:00:00,gcqrvsu1ktqw,SHELL,KINGSWAY,M19 1RD,53.419891,-2.213543,144.9,139.9
14/04/2025 00:00:00,gcqsvptrqp9e,SHELL,NEW ROAD,ST14 7DB,52.908695,-1.882179,149.9,144.9
14/04/2025 00:00:00,gcqusrscwdu6,SHELL,B5008 JUNCTION A50/A38 SERVICES ETW,DE65 6DX,52.863737,-1.564237,157.9,153.9
14/04/2025 00:00:00,gcqvq24dpg48,SHELL,DUFFIELD ROAD,DE22 2DG,52.954461,-1.479385,143.9,138.9
14/04/2025 00:00:00,gcqzwk5g5v4w,SHELL,BOSTON STREET,S2 4QF,53.372125,-1.47784,145.9,136.9
14/04/2025 00:00:00,gcqzz648hdkv,SHELL,CARLISLE STREET EAST,S4 7LJ,53.404554,-1.435576,147.9,141.9
14/04/2025 00:00:00,gcr10r52k7f7,SHELL,BANBURY ROAD,CV47 2BJ,52.245547,-1.390615,145.9,139.9
14/04/2025 00:00:00,gcr1gt73vq40,SHELL,89 HILLMORTON ROAD,CV22 5AG,52.368039,-1.24775,144.9,138.9
14/04/2025 00:00:00,gcr297d6fbhr,SHELL,WATLING STREET,NN12 6HN,52.13884,-0.996542,149.9,143.9
14/04/2025 00:00:00,gcr2gwvxpr1y,SHELL,London Road,NN4 0JN,52.201405,-0.893012,144.9,136.9
14/04/2025 00:00:00,gcr2jg3g7xzu,SHELL,H3 Monks Way,MK12 6HU,52.049703,-0.799438,146.9,139.9
14/04/2025 00:00:00,gcr2pgjtp0c3,SHELL,CHILDS WAY,MK10 9AB,52.048592,-0.706256,142.9,138.9
14/04/2025 00:00:00,gcr2pnxw9brp,SHELL,Monks Way,MK14 5JA,52.068074,-0.736686,142.9,137.9
14/04/2025 00:00:00,gcr31v0st1jn,SHELL,WEEDON ROAD,NN7 4DE,52.235276,-0.976875,145.9,138.9
14/04/2025 00:00:00,gcr357wk1x44,SHELL,TOWCESTER ROAD,NN4 8LA,52.226982,-0.903215,145.9,137.9
14/04/2025 00:00:00,gcr3kzjcbvuy,SHELL,PARK VIEW,NN3 7TP,52.289761,-0.838012,146.9,139.9
14/04/2025 00:00:00,gcr4gs2pr3wb,SHELL,Coventry Road,LE9 6QD,52.539247,-1.252121,142.9,138.9
14/04/2025 00:00:00,gcr5ckhd10yr,SHELL,250 BARDON ROAD,LE67 4BL,52.712751,-1.345087,147.9,143.9
14/04/2025 00:00:00,gcr5mu0vkc26,SHELL,153 NARBOROUGH ROAD.,LE3 0PD,52.62542,-1.15233,141.9,134.9
14/04/2025 00:00:00,gcr5r0f6h13w,SHELL,LONDON ROAD,LE23JW,52.60701,-1.095369,142.9,137.9
14/04/2025 00:00:00,gcr5rr5k3sck,SHELL,Uppingham Road,LE5 2BE,52.641747,-1.083117,138.9,137.9
14/04/2025 00:00:00,gcr5sdp6n53e,SHELL,Groby Road,LE3 8GJ,52.657832,-1.19828,145.9,139.9
14/04/2025 00:00:00,gcr5y252fkmu,SHELL,A46/A6 A46/A6 TRUNK ROAD,LE4 3BT,52.690582,-1.127024,154.9,146.9
14/04/2025 00:00:00,gcr85qhnxv78,SHELL,BEANCROFT ROAD,MK43 0PZ,52.065353,-0.554472,149.9,142.9
14/04/2025 00:00:00,gcr98e730vdc,SHELL,Finedon Road,NN8 4AL,52.312976,-0.676653,142.9,136.9
14/04/2025 00:00:00,gcr99bwjfkuy,SHELL,"CROWN PARK,",NN10 6AR,52.298682,-0.617878,143.9,133.9
14/04/2025 00:00:00,gcr9brgzvt0e,SHELL,151 BARTON ROAD,NN15 6RT,52.382797,-0.686752,141.9,133.9
14/04/2025 00:00:00,gcrc6pmdcbxz,SHELL,GREAT NORTH ROAD,PE19 5XF,52.291278,-0.256033,154.9,144.9
14/04/2025 00:00:00,gcrcg89r61vx,SHELL,STUKELEY ROAD,PE29 6HG,52.342869,-0.195944,148.9,141.9
14/04/2025 00:00:00,gcrcjeguzj7u,SHELL,ST NEOTS ROAD,CB3 8PD,52.228475,-0.104408,147.9,139.9
14/04/2025 00:00:00,gcrcqxthdn12,SHELL,A14 Cambridge Road,PE28 9LS,52.29298,-0.058964,152.9,143.9
14/04/2025 00:00:00,gcrcrg2n2ppx,SHELL,A14 BOXWORTH,CB3 8WU,52.269941,-0.010976,167.9,158.9
14/04/2025 00:00:00,gcrcskh5v769,SHELL,LEGION WAY,PE29 2XH,52.317556,-0.159073,148.9,141.9
14/04/2025 00:00:00,gcrcwnzf9vrv,SHELL,RAMSEY ROAD,PE27 6RG,52.332459,-0.077162,147.9,139.9
14/04/2025 00:00:00,gcrdh1f17s2w,SHELL,JUNCTION 13 A14,NN14 4UR,52.392664,-0.524446,155.9,144.9
14/04/2025 00:00:00,gcrfbdvr9x8e,SHELL,A1(M) J17,PE7 3UQ,52.531083,-0.322315,159.9,149.9
14/04/2025 00:00:00,gcrffz3f5yge,SHELL,WHITTLESEY ROAD,PE2 8RL,52.554854,-0.228144,142.9,134.9
14/04/2025 00:00:00,gcrg1ur9z4hw,SHELL,Atherstone Avenue,PE3 9TX,52.582252,-0.264052,142.9,134.9
14/04/2025 00:00:00,gcrg4gqcjd8f,SHELL,CARR ROAD,PE1 5YB,52.576632,-0.221206,141.9,134.9
14/04/2025 00:00:00,gcrhk2jw8q82,SHELL,53 BELTON ROAD,LE11 1LW,52.779471,-1.211918,141.9,135.9
14/04/2025 00:00:00,gcrhpgs1dqbc,SHELL,663-667 663-667 FOSSE WAY,LE7 4TF,52.753895,-1.060083,141.9,135.9
14/04/2025 00:00:00,gcrhzjc2rny9,SHELL,94 94 MELTON ROAD,NG12 4EN,52.897876,-1.096607,143.9,136.9
14/04/2025 00:00:00,gcrj08c9fdsw,SHELL,Borrowash Bypass,DE72 3HN,52.914591,-1.382104,144.9,137.9
14/04/2025 00:00:00,gcrj6zgsee9n,SHELL,GIN CLOSE WAY,NG16 2TA,52.997466,-1.280442,142.9,136.9
14/04/2025 00:00:00,gcrjhm1v7edj,SHELL,Derby Road,NG9 2TA,52.938543,-1.216926,145.9,136.9
14/04/2025 00:00:00,gcrjmdwnukuc,SHELL,SHERWOOD RISE,NG7 6JN,52.969019,-1.156122,141.9,134.9
14/04/2025 00:00:00,gcrm1xnyk3zz,SHELL,Saxondale Cross Roads,NG13 8AY,52.949692,-0.979307,146.9,137.9
14/04/2025 00:00:00,gcrn39kgu2k5,SHELL,M1 JCT 28-29,DE55 5TZ,53.137395,-1.333621,171.9,162.9
14/04/2025 00:00:00,gcrn3c82rnb9,SHELL,M1 JCT 28-29,DE55 5TZ,53.138202,-1.328701,171.9,162.9
14/04/2025 00:00:00,gcrpbfzgssxq,SHELL,BAWTRY ROAD,S60 5ND,53.409287,-1.362445,139.9,132.9
14/04/2025 00:00:00,gcrpgmt5zf9k,SHELL,BAWTRY ROAD,S66 2TP,53.424425,-1.256227,139.9,132.9
14/04/2025 00:00:00,gcrpgt7783sp,SHELL,BAWTRY ROAD,S66 8EY,53.423004,-1.247962,141.9,133.9
14/04/2025 00:00:00,gcrpnpe85bbd,SHELL,ST ANNES DRIVE,S80 3QD,53.302922,-1.13761,141.9,133.9
14/04/2025 00:00:00,gcrq8sgbw93s,SHELL,OLD RUFFORD ROAD,NG22 9DT,53.200014,-1.027284,146.9,138.9
14/04/2025 00:00:00,gcrqfyvgrjqg,SHELL,A1 Northbound Carriageway,DN22 0QU,53.255439,-0.925632,147.9,139.9
14/04/2025 00:00:00,gcrqgncd3fsn,SHELL,A1 SOUTHBOUND,DN22 0PG,53.255253,-0.920711,147.9,139.9
14/04/2025 00:00:00,gcrqn1tvwupn,SHELL,A17 WINTHORPE ROUNDABOUT,NG24 2NY,53.095144,-0.78282,151.9,142.9
14/04/2025 00:00:00,gcrspeenmtjr,SHELL,MILESTONE ROAD,PE10 0ET,52.754702,-0.369172,145.9,136.9
14/04/2025 00:00:00,gcrwgs6k0zqy,SHELL,BURTON ROAD,LN1 3ND,53.241846,-0.546185,145.9,138.9
14/04/2025 00:00:00,gcrwunh1501m,SHELL,SEARBY ROAD,LN2 4DS,53.250905,-0.52172,147.9,139.9
14/04/2025 00:00:00,gctb59yds38h,SHELL,100 100 DERBY ROAD,L20 1BP,53.447551,-3.001145,141.9,133.9
14/04/2025 00:00:00,gctb5nytpkyd,SHELL,CROSBY ROAD NORTH,L22 0LA,53.475463,-3.02298,141.9,133.9
14/04/2025 00:00:00,gctbjtfmqd4d,SHELL,Longmoor Lane,L10 1LA,53.469998,-2.918991,145.9,136.9
14/04/2025 00:00:00,gctbmpmkzhdh,SHELL,NORTHWAY,L31 0BW,53.522111,-2.936823,139.9,132.9
14/04/2025 00:00:00,gctcgce4cb83,SHELL,Heyhouses Lane,FY8 3RQ,53.753832,-2.995072,146.9,139.9
14/04/2025 00:00:00,gctfkfspp5kc,SHELL,Garstang Road East,FY6 7SX,53.84796,-2.949522,146.9,139.9
14/04/2025 00:00:00,gctu3fds4b0w,SHELL,OUBAS HILL,LA12 7LA,54.198991,-3.083606,141.9,133.9
14/04/2025 00:00:00,gcuvmwmgg2q2,SHELL,ROUKEN GLEN ROAD,G46 7HT,55.801579,-4.320569,142.9,132.9
14/04/2025 00:00:00,gcuvu9q72pxp,SHELL,HILLINGTON ROAD,G52 4BL,55.861958,-4.363966,146.9,139.9
14/04/2025 00:00:00,gcuvw1gbee94,SHELL,265 NETHER AULDHOUSE ROAD,G43 1LS,55.820265,-4.301339,142.9,132.9
14/04/2025 00:00:00,gcuvwvxxe20r,SHELL,48 VICTORIA ROAD,G42 7AA,55.842048,-4.263242,143.9,139.9
14/04/2025 00:00:00,gcuy48tz3ecc,SHELL,CENTREHOLM ROUNDABOUT,PA8 6EY,55.902449,-4.452486,142.9,135.9
14/04/2025 00:00:00,gcv3r0gskdmt,SHELL,Annan Road,DG1 3SE,55.068339,-3.554563,144.9,136.9
14/04/2025 00:00:00,gcvbs5qr6727,SHELL,M6/A74 NORTHBOUND,CA6 4HA,54.950756,-2.979601,171.9,162.9
14/04/2025 00:00:00,gcvmzz4zqr1g,SHELL,HOWDEN WEST,EH54 6AA,55.894227,-3.522564,146.9,138.9
14/04/2025 00:00:00,gcvn1p7848fb,SHELL,31 GLASGOW ROAD,G66 1BG,55.938267,-4.169887,145.9,136.9
14/04/2025 00:00:00,gcvnmst4xw69,SHELL,A80 WARDPARK,G68 0JB,55.967565,-3.969859,142.9,137.9
14/04/2025 00:00:00,gcvpnkezv0kc,SHELL,40 BORESTONE CRESCENT,FK7 9BH,56.10027,-3.938721,143.9,134.9
14/04/2025 00:00:00,gcvpygmpdkqc,SHELL,A9 Southbound,FK15 0NB,56.225218,-3.915147,149.9,141.9
14/04/2025 00:00:00,gcvtbscsyj7s,SHELL,Lizzie Brice's Roundabout,EH54 6LN,55.881429,-3.49133,147.9,139.9
14/04/2025 00:00:00,gcvvf0rwxq7c,SHELL,NEWTONLOAN TOLL,EH23 4LZ,55.857015,-3.065556,146.9,139.9
14/04/2025 00:00:00,gcvw6xdtct7z,SHELL,1 1 FERRYMUIR GAIT,EH30 9SF,55.984598,-3.402259,145.9,139.9
14/04/2025 00:00:00,gcvwf144wrhu,SHELL,ADMIRALTY ROAD,KY11 2BN,56.036234,-3.424713,144.9,137.9
14/04/2025 00:00:00,gcvwhxexspt0,SHELL,166 GLASGOW ROAD,EH12 8LS,55.940964,-3.312886,142.9,136.9
14/04/2025 00:00:00,gcvwjpbwg15f,SHELL,19-21 19-21 Glasgow Road,EH12 8HW,55.942174,-3.295078,142.9,136.9
14/04/2025 00:00:00,gcvwn2q6q525,SHELL,50 Dreghorn Link,EH13 9QR,55.900215,-3.232126,147.9,142.9
14/04/2025 00:00:00,gcvwngse4ekw,SHELL,277 COMISTON ROAD,EH10 6AP,55.918197,-3.212701,142.9,135.9
14/04/2025 00:00:00,gcvwqkekj6tm,SHELL,CREWE TOLL,EH4 2NT,55.967803,-3.236271,141.9,136.9
14/04/2025 00:00:00,gcvy2m4pvsxj,SHELL,7 7 SEAFIELD ROAD,EH6 7LE,55.971204,-3.150084,144.9,138.9
14/04/2025 00:00:00,gcw08etxgfvq,SHELL,GRIMSHAW ROAD,WN8 9JE,53.545963,-2.782806,146.9,139.9
14/04/2025 00:00:00,gcw0hn0ykv6j,SHELL,EAST LANCS ROAD,WA12 0HL,53.471561,-2.635482,146.9,136.9
14/04/2025 00:00:00,gcw0xwtqnkeh,SHELL,Beaumont Road,BL3 4RB,53.562151,-2.475428,145.9,136.9
14/04/2025 00:00:00,gcw1xdk7ek5p,SHELL,"COMMERCIAL ROAD, M65 JCT 4",BB3 0DB,53.714155,-2.47693,146.9,138.9
14/04/2025 00:00:00,gcw2493zbdmw,SHELL,42 STRETFORD ROAD,M41 9LS,53.44571,-2.348642,144.9,138.9
14/04/2025 00:00:00,gcw26s6ku85f,SHELL,EAST LANCASHIRE ROAD,M27 0AA,53.505607,-2.347786,143.9,135.9
14/04/2025 00:00:00,gcw2bg028vvj,SHELL,Kay Street,BL1 2EX,53.585933,-2.427596,141.9,134.9
14/04/2025 00:00:00,gcw2hfj1xp2r,SHELL,PRINCESS ROAD,M14 7LU,53.448784,-2.24503,142.9,136.9
14/04/2025 00:00:00,gcw2hrhbmumn,SHELL,REGENT ROAD,M5 4TS,53.476019,-2.267393,142.9,134.9
14/04/2025 00:00:00,gcw2kr0eub26,SHELL,Bury New Road,M25 9WP,53.520543,-2.273279,139.9,133.9
14/04/2025 00:00:00,gcw2pznp8yhc,SHELL,188 STOCKPORT ROAD,OL7 0NS,53.477272,-2.112083,144.9,135.9
14/04/2025 00:00:00,gcw2zjbx61j4,SHELL,QUEENSWAY,OL11 2LE,53.602172,-2.152541,144.9,135.9
14/04/2025 00:00:00,gcw3eh271q27,SHELL,BLACKBURN ROAD,BB5 2SB,53.725067,-2.328704,145.9,136.9
14/04/2025 00:00:00,gcw5899x39pm,SHELL,CATON ROAD,LA1 3PE,54.062225,-2.788393,147.9,141.9
14/04/2025 00:00:00,gcw809rgspub,SHELL,Dowson Road,SK14 1QL,53.445009,-2.076581,139.9,134.9
14/04/2025 00:00:00,gcw9nzp81x5b,SHELL,WESTBOURNE ROAD,HD1 4LE,53.651771,-1.802375,141.9,133.9
14/04/2025 00:00:00,gcw9tb62f8sd,SHELL,Salterhebble Hill,HX3 0QE,53.702677,-1.853486,146.9,139.9
14/04/2025 00:00:00,gcwcbhkbsjvp,SHELL,ROOLEY LANE,BD5 8JR,53.768581,-1.751111,146.9,139.9
14/04/2025 00:00:00,gcwce2qs9pmf,SHELL,LEEDS ROAD,WF12 7HP,53.703357,-1.606013,144.9,134.9
14/04/2025 00:00:00,gcwcku2qmp5q,SHELL,Wakefield Road,WF5 9AD,53.681684,-1.54851,143.9,135.9
14/04/2025 00:00:00,gcwdr0ksv56w,SHELL,Bingley Road,BD18 4DJ,53.835215,-1.79536,145.9,135.9
14/04/2025 00:00:00,gcwf5bc1m8nb,SHELL,147 TONG ROAD,LS12 1QJ,53.793397,-1.591399,147.9,138.9
14/04/2025 00:00:00,gcwf70t3v1wb,SHELL,BROADWAY RING ROAD,LS18 4DF,53.836063,-1.618543,146.9,138.9
14/04/2025 00:00:00,gcwfduuqn3s9,SHELL,POOL ROAD,LS21 1EQ,53.904084,-1.630852,154.9,145.9
14/04/2025 00:00:00,gcwfj4kpbynr,SHELL,24 Regent Street,LS2 7QA,53.802786,-1.532552,141.9,133.9
14/04/2025 00:00:00,gcwghxr2p6h8,SHELL,Ripon Road,HG1 2BS,54.00468,-1.549785,146.9,139.9
14/04/2025 00:00:00,gcwghybtdnp2,SHELL,RIPON ROAD,HG1 2BS,54.002899,-1.54829,146.9,139.9
14/04/2025 00:00:00,gcwncqx3xyz1,SHELL,VICTORIA ROAD,CA11 8HU,54.660023,-2.74727,143.9,135.9
14/04/2025 00:00:00,gcwyhqbsv0pz,SHELL,WOODLAND ROAD,DL3 9NQ,54.530083,-1.570133,144.9,136.9
14/04/2025 00:00:00,gcwzm6gjbnrq,SHELL,TURSDALE ROAD,DH6 5NP,54.728042,-1.52297,166.9,158.9
14/04/2025 00:00:00,gcwztrh73psd,SHELL,High Street,DH1 1LU,54.79491,-1.521214,144.9,136.9
14/04/2025 00:00:00,gcx0qj9xbrfx,SHELL,1 BALBY ROAD,DN4 0RA,53.513031,-1.140504,141.9,132.9
14/04/2025 00:00:00,gcx15f6j8uue,SHELL,GREAT NORTH ROAD,WF8 3JF,53.626611,-1.23867,147.9,139.9
14/04/2025 00:00:00,gcx15f6xb09q,SHELL,GREAT NORTH ROAD,WF8 3JF,53.626975,-1.23802,147.9,139.9
14/04/2025 00:00:00,gcx16rjz4ypf,SHELL,Bondgate,WF8 2JP,53.696913,-1.299348,145.9,137.9
14/04/2025 00:00:00,gcx4b3zdkgpx,SHELL,31 31 NORTH STREET,LS22 6NU,53.930915,-1.38475,146.9,139.9
14/04/2025 00:00:00,gcx9c7c9urh6,SHELL,A63 EASTBOUND,HU15 1SA,53.766055,-0.645945,149.9,139.9
14/04/2025 00:00:00,gcx9eu7vv81w,SHELL,MELTON ROAD,HU14 3HG,53.725506,-0.532942,149.9,139.9
14/04/2025 00:00:00,gcxbvc1kgu86,SHELL,A180 MOODY LANE,DN31 2SY,53.575669,-0.096999,141.9,137.9
14/04/2025 00:00:00,gcxd2p92wwpf,SHELL,YORK ROAD,YO43 3PN,53.874325,-0.701119,147.9,137.9
14/04/2025 00:00:00,gcxh2cydz15c,SHELL,"A168 SOUTHBOUND, THIRSK BYPASS",YO7 3HL,54.194661,-1.364059,148.9,137.9
14/04/2025 00:00:00,gcxh2frsnecp,SHELL,THIRSK BYPASS NORTHBOUND,YO7 3HN,54.197638,-1.362711,148.9,137.9
14/04/2025 00:00:00,gcxn4qmfj4yn,SHELL,THORNABY ROAD,TS17 0JJ,54.526879,-1.299254,143.9,136.9
14/04/2025 00:00:00,gcxpc0c3xuzf,SHELL,A19,SR7 8SS,54.804208,-1.360245,148.9,141.9
14/04/2025 00:00:00,gcxpc0d0gh73,SHELL,A19,SR7 8SS,54.802703,-1.359425,148.9,141.9
14/04/2025 00:00:00,gcxsq4u1u00n,SHELL,OLD MALTON ROAD,YO12 4SB,54.199978,-0.433788,146.9,139.9
14/04/2025 00:00:00,gcyb8yr00x21,SHELL,TYNE STREET,NE21 4JB,54.966012,-1.715219,146.9,136.9
14/04/2025 00:00:00,gcybehyfrffm,SHELL,Askew Road,NE8 2JX,54.958135,-1.616371,149.9,139.9
14/04/2025 00:00:00,gcybtdcjve3k,SHELL,Whitemare Pool,NE10 8YB,54.947752,-1.514502,143.9,134.9
14/04/2025 00:00:00,gcybu0t81w4z,SHELL,308 SHIELDS ROAD,NE6 2UU,54.978366,-1.57441,141.9,135.9
14/04/2025 00:00:00,gcyc504t8u5y,SHELL,GREAT NORTH ROAD,NE3 2DT,55.020498,-1.622506,142.9,134.9
14/04/2025 00:00:00,gcychne1hj4h,SHELL,BURRADON ROAD,NE23 7BD,55.055436,-1.577737,144.9,137.9
14/04/2025 00:00:00,gcycjbzbvbny,SHELL,SILVER FOX WAY,NE27 0QH,55.023781,-1.494228,145.9,136.9
14/04/2025 00:00:00,gfh7kd84ptd1,SHELL,ROAD TO THE ISLES,PH33 6TJ,56.835395,-5.075359,146.9,137.9
14/04/2025 00:00:00,gfj89zg4mdes,SHELL,EDINBURGH ROAD,PH2 8DX,56.380863,-3.43436,144.9,134.9
14/04/2025 00:00:00,gfjfq0jpmufw,SHELL,QUEENSWELL ROAD,DD8 3JA,56.646779,-2.893274,144.9,136.9
14/04/2025 00:00:00,gfnmp5g7p5vp,SHELL,North Anderson Drive,AB15 5DB,57.150042,-2.14855,142.9,136.9
14/04/2025 00:00:00,gfnmq32fgth8,SHELL,Inverurie Road,AB21 9BB,57.180217,-2.185093,143.9,135.9
14/04/2025 00:00:00,gfnsbks0nk5f,SHELL,WELLINGTON ROAD,AB12 3JG,57.109702,-2.092622,139.9,133.9
14/04/2025 00:00:00,gfnsbmqumg85,SHELL,Wellington Road,AB12 3JX,57.114549,-2.088872,139.9,133.9
14/04/2025 00:00:00,u101mq25z1zb,SHELL,"BOSHIP ROUNDABOUT,",BN27 4DP,50.879712,0.231024,144.9,136.9
14/04/2025 00:00:00,u104441zrh5w,SHELL,MARESFIELD BYPASS,TN22 5EP,50.988816,0.090599,145.9,139.9
14/04/2025 00:00:00,u104vvtv6ppd,SHELL,37 ST JOHNS ROAD,TN4 9TP,51.13955,0.260678,146.9,137.9
14/04/2025 00:00:00,u105nn7pqhdp,SHELL,54 QUARRY HILL ROAD,TN9 2SA,51.187946,0.268052,149.9,141.9
14/04/2025 00:00:00,u105snfftdez,SHELL,LONDON ROAD,TN13 1DH,51.277757,0.179799,146.9,139.9
14/04/2025 00:00:00,u105zec67cte,SHELL,LONDON ROAD,TN15 7RR,51.305174,0.331475,147.9,139.9
14/04/2025 00:00:00,u107342txe7k,SHELL,BANBRIDGES ROAD,TN12 5HH,51.209611,0.396521,148.9,139.9
14/04/2025 00:00:00,u1077wm9h2ft,SHELL,Linton Road,ME15 0AT,51.230798,0.51311,144.9,137.9
14/04/2025 00:00:00,u107cym0bj44,SHELL,MALLING ROAD,ME6 5LB,51.318668,0.435336,146.9,139.9
14/04/2025 00:00:00,u107ez9xkpgs,SHELL,Sandling Road,ME14 2RL,51.28272,0.518594,145.9,138.9
14/04/2025 00:00:00,u107gts9hw1q,SHELL,BLUEBELL HILL (SOUTHBOUND),ME20 7EE,51.314597,0.511746,145.9,138.9
14/04/2025 00:00:00,u107gw3n3fu4,SHELL,A229 NORTHBOUND,ME20 7EZ,51.3196,0.506825,145.9,138.9
14/04/2025 00:00:00,u107ve5bp4e4,SHELL,DETLING HILL,ME14 3HT,51.300673,0.598716,146.9,139.9
14/04/2025 00:00:00,u107ve5enhqn,SHELL,DETLING HILL,ME14 3HT,51.301198,0.598334,146.9,139.9
14/04/2025 00:00:00,u10d5t2z7wqz,SHELL,BRENZETT ROAD,TN29 9TZ,51.006681,0.858123,149.9,141.9
14/04/2025 00:00:00,u10dxvd2ny85,SHELL,M20 M20 JUNCTION 11,CT21 4GH,51.094701,1.047081,171.9,162.9
14/04/2025 00:00:00,u10eus0bcns8,SHELL,CANTERBURY ROAD,ME13 8XA,51.306316,0.901958,147.9,141.9
14/04/2025 00:00:00,u10eyrx0gcq8,SHELL,THANET WAY,ME13 9EL,51.325514,0.987566,149.9,143.9
14/04/2025 00:00:00,u10h302qqy0x,SHELL,116-118 HASTINGS ROAD,BR2 8NJ,51.37455,0.044579,144.9,136.9
14/04/2025 00:00:00,u10h3dy4xqyy,SHELL,52 QUEENSWAY,BR5 1DH,51.387643,0.074478,149.9,141.9
14/04/2025 00:00:00,u10h4h323pbe,SHELL,77 HIGH STREET,BR6 6BJ,51.351556,0.089651,149.9,139.9
14/04/2025 00:00:00,u10h803m74w6,SHELL,96A BROMLEY HILL,BR1 4JU,51.418304,0.001854,149.9,142.9
14/04/2025 00:00:00,u10h97mv3szv,SHELL,728 SIDCUP ROAD,SE9 3AL,51.434796,0.062903,144.9,136.9
14/04/2025 00:00:00,u10h9hjmtyr8,SHELL,551 SIDCUP ROAD,SE9 3AF,51.438966,0.051412,144.9,137.9
14/04/2025 00:00:00,u10hbdu6spyb,SHELL,165 Shooters Hill Road,SE3 8UQ,51.475538,0.02799,144.9,137.9
14/04/2025 00:00:00,u10hdtv0cs16,SHELL,510 BLACKFEN ROAD,DA15 9NT,51.447752,0.116796,147.9,139.9
14/04/2025 00:00:00,u10hf28m4ht0,SHELL,147-173 BELLEGROVE ROAD,DA16 3QS,51.46359,0.099313,146.9,139.9
14/04/2025 00:00:00,u10hsxp8bqu1,SHELL,BURNHAM ROAD,DA1 5BN,51.454633,0.20807,143.9,138.9
14/04/2025 00:00:00,u10ht46ev8u8,SHELL,HAWLEY ROAD,DA1 1PU,51.429023,0.223402,146.9,139.9
14/04/2025 00:00:00,u10htsb654t0,SHELL,LONDON ROAD,DA2 6AS,51.442465,0.242178,146.9,139.9
14/04/2025 00:00:00,u10hu1hjmfgt,SHELL,Northend Road,DA8 3RF,51.466371,0.181526,143.9,138.9
14/04/2025 00:00:00,u10hxq19rpgz,SHELL,STONEBRIDGE ROAD,DA11 9BJ,51.449232,0.320969,146.9,138.9
14/04/2025 00:00:00,u10j1whhd38p,SHELL,London Road,IG11 8BU,51.537647,0.071508,143.9,135.9
14/04/2025 00:00:00,u10j4mq1kbcb,SHELL,514 RIPPLE ROAD,IG11 9PG,51.532964,0.107323,143.9,135.9
14/04/2025 00:00:00,u10j76k10fqb,SHELL,WOOD LANE,RM10 7RP,51.560395,0.148357,144.9,136.9
14/04/2025 00:00:00,u10j8bpk817m,SHELL,SOUTHEND ROAD,IG8 8QH,51.592577,0.04292,144.9,137.9
14/04/2025 00:00:00,u10j8tywbucr,SHELL,18-22 18-22 HIGH ROAD,IG9 5HP,51.624568,0.030933,148.9,142.9
14/04/2025 00:00:00,u10j9g7q1wpx,SHELL,124 MANOR ROAD,IG7 5PP,51.610713,0.081442,145.9,137.9
14/04/2025 00:00:00,u10jcrmby6tc,SHELL,High Road,CM16 5HW,51.67571,0.063104,149.9,139.9
14/04/2025 00:00:00,u10jkpfkush7,SHELL,EASTERN AVENUE,RM1 4SJ,51.591261,0.17907,145.9,137.9
14/04/2025 00:00:00,u10jm9qzk7m8,SHELL,168-170 St Mary'S Lane,RM14 3BS,51.55598,0.251159,146.9,138.9
14/04/2025 00:00:00,u10jw50utd20,SHELL,BROOK ROAD,CM14 5NA,51.609061,0.264938,147.9,141.9
14/04/2025 00:00:00,u10jwfbf1bpe,SHELL,146-148 146-148 WARLEY HILL,CM14 5HE,51.607247,0.297746,147.9,141.9
14/04/2025 00:00:00,u10k5qe4vu83,SHELL,MAIDSTONE ROAD,ME1 3LT,51.364327,0.498752,143.9,136.9
14/04/2025 00:00:00,u10k7gn7txzu,SHELL,DOCK ROAD,ME4 4SU,51.389193,0.525187,144.9,137.9
14/04/2025 00:00:00,u10k7tqmjvwu,SHELL,ANTHONYS WAY,ME2 4DW,51.401798,0.51421,141.9,134.9
14/04/2025 00:00:00,u10kjkmgdtws,SHELL,400 MAIDSTONE ROAD,ME8 0JA,51.352102,0.590288,138.9,134.9
14/04/2025 00:00:00,u10mfx97n11s,SHELL,STOCK ROAD,CM2 8LA,51.677462,0.463402,143.9,138.9
14/04/2025 00:00:00,u10mmts9u8qc,SHELL,High Road,SS6 7SL,51.578366,0.599644,141.9,133.9
14/04/2025 00:00:00,u10mrcfgzrub,SHELL,96-118 Prince Avenue,SS2 6PL,51.55815,0.696233,144.9,137.9
14/04/2025 00:00:00,u10n46vwm4hh,SHELL,24-36 HIGH STREET,CM16 4AE,51.695878,0.10665,144.9,139.9
14/04/2025 00:00:00,u10n7h9mmgrz,SHELL,Bypass Potter Street,CM17 9AD,51.749272,0.13381,149.9,139.9
14/04/2025 00:00:00,u10ng27vchdb,SHELL,50 LONDON ROAD,CM21 9JN,51.813908,0.148019,147.9,141.9
14/04/2025 00:00:00,u10p58zvwd07,SHELL,LONDON ROAD,CM23 3LA,51.860544,0.164731,146.9,139.9
14/04/2025 00:00:00,u10p5usdwbgk,SHELL,1 STANSTED ROAD,CM23 2DR,51.880622,0.171269,145.9,141.9
14/04/2025 00:00:00,u10qe0dkzygu,SHELL,3 EAGLE WAY LITTLE WALTHAM,CM3 3FY,51.771177,0.486826,149.9,139.9
14/04/2025 00:00:00,u10s06tcghj9,SHELL,LONDON ROAD,ME10 1NL,51.34218,0.722144,145.9,139.9
14/04/2025 00:00:00,u10s3r8rgxz2,SHELL,265-269 QUEENBOROUGH ROAD,ME12 3EW,51.414641,0.75856,148.9,141.9
14/04/2025 00:00:00,u10t298ckpsm,SHELL,"FOSSETTS WAY, EASTERN AVENUE",SS2 4DQ,51.556347,0.726305,144.9,137.9
14/04/2025 00:00:00,u10up961nmed,SHELL,CANTERBURY ROAD EAST.,CT11 0LB,51.335193,1.387297,148.9,139.9
14/04/2025 00:00:00,u10wbcphcr7b,SHELL,MAYPOLE ROAD,CO5 0EN,51.817871,0.745756,148.9,139.9
14/04/2025 00:00:00,u10x1e4t4whz,SHELL,LONDON ROAD,CO6 1EU,51.87284,0.77259,148.9,139.9
14/04/2025 00:00:00,u10x1k19mkwj,SHELL,Coggeshall Road,CO6 1LT,51.877681,0.76035,147.9,138.9
14/04/2025 00:00:00,u10xmxhej6x4,SHELL,A12 NORTHBOUND,CO4 5NQ,51.938395,0.951239,141.9,136.9
14/04/2025 00:00:00,u10xmzbjsg9j,SHELL,A12 Ipswich Road,CO7 6HU,51.94295,0.956016,141.9,136.9
14/04/2025 00:00:00,u10zgn86fv75,SHELL,Orwell Bridge Road,IP10 0JN,52.023511,1.186989,142.9,133.9
14/04/2025 00:00:00,u10ztgrp9stx,SHELL,THE DOCK / ANZANI AVENUE,IP11 4HU,51.962525,1.317058,144.9,136.9
14/04/2025 00:00:00,u120f9cfg5bt,SHELL,HIGH STREET,CB2 2LS,52.173192,0.112396,148.9,141.9
14/04/2025 00:00:00,u120fw3znb8d,SHELL,"NEWNHAM ROAD,",CB3 9EY,52.198623,0.112557,148.9,141.9
14/04/2025 00:00:00,u120t16jzemf,SHELL,FOURWENTWAYS,CB21 6AR,52.127012,0.222803,147.9,139.9
14/04/2025 00:00:00,u1231n1mwshy,SHELL,220 HIGH STREET,CB8 9AP,52.240957,0.39751,149.9,142.9
14/04/2025 00:00:00,u123r83fh7fh,SHELL,Newmarket Road,IP33 3TF,52.252714,0.683741,143.9,135.9
14/04/2025 00:00:00,u123spuuksy8,SHELL,"5 WAYS ROUNDABOUT,",IP28 6AE,52.338249,0.534069,149.9,141.9
14/04/2025 00:00:00,u125sxncjrrt,SHELL,NORTH WALTON HIGHWAY,PE14 7BD,52.685148,0.207259,149.9,141.9
14/04/2025 00:00:00,u127x9ucggub,SHELL,CASTLE ACRE ROAD,PE37 7HT,52.656418,0.687843,144.9,135.9
14/04/2025 00:00:00,u12b1u9xy2ss,SHELL,LONDON ROAD,IP2 0DX,52.057303,1.133926,138.9,131.9
14/04/2025 00:00:00,u12b38gnbs9t,SHELL,665 NORWICH ROAD,IP1 6JZ,52.080499,1.124749,138.9,131.9
14/04/2025 00:00:00,u12b8t4kswx3,SHELL,NORWICH ROAD,IP6 8LP,52.147414,1.079953,144.9,133.9
14/04/2025 00:00:00,u12bms15nbgy,SHELL,GROVE ROAD,IP12 4LQ,52.097688,1.298055,141.9,133.9
14/04/2025 00:00:00,u12bms1g67dd,SHELL,24 GROVE ROAD,IP12 4LH,52.097745,1.29889,141.9,133.9
14/04/2025 00:00:00,u12ccmzf75ey,SHELL,VICTORIA ROAD,IP22 4GA,52.370859,1.120396,152.9,143.9
14/04/2025 00:00:00,u12dzgqdvfxz,SHELL,A11 BYPASS,NR17 2PU,52.532988,1.052885,154.9,147.9
14/04/2025 00:00:00,u12g1gg99qz3,SHELL,NORWICH ROAD,NR18 0SH,52.579487,1.136462,151.9,143.9
14/04/2025 00:00:00,u12g7b1bwzqr,SHELL,"NORWICH ROAD,",NR9 3AU,52.602665,1.222184,149.9,141.9
14/04/2025 00:00:00,u12gm1ky0f34,SHELL,IPSWICH ROAD,NR4 6LA,52.610448,1.280971,144.9,137.9
14/04/2025 00:00:00,u12k09tctrqv,SHELL,A47 A47 SADDLEBOW,PE34 3LW,52.742912,0.381666,144.9,137.9
14/04/2025 00:00:00,u12se54d6bmp,SHELL,CREAK ROAD,NR21 9HT,52.839134,0.838519,149.9,142.9
14/04/2025 00:00:00,u134e0v2ks9t,SHELL,A143/A146 ROUNDABOUT,NR34 0ED,52.474891,1.545491,149.9,143.9
14/04/2025 00:00:00,u1352mqbks16,SHELL,YARMOUTH ROAD,NR13 5AR,52.631443,1.426701,145.9,138.9
